{
  "type": "FeatureCollection",
  "features": [
    {
      "type": "Feature",
      "properties": {
        "norad_id": 66799,
        "name": "STARLINK-36044",
        "group": "last-30-days",
        "lat": 41.40851578673707,
        "lon": -46.85973368128072,
        "alt_km": 376.4826471567512,
        "timestamp": "2025-12-20T14:38:00.689472+00:00",
        "meta_object_name": "STARLINK-36044",
        "meta_object_id": "2025-278J",
        "meta_epoch": "2025-12-20T06:00:02.999808",
        "meta_mean_motion": 15.63546792,
        "meta_eccentricity": 0.00013449,
        "meta_inclination": 42.9996,
        "meta_ra_of_asc_node": 206.4392,
        "meta_arg_of_pericenter": 256.6064,
        "meta_mean_anomaly": 341.3358,
        "meta_ephemeris_type": 0,
        "meta_classification_type": "U",
        "meta_norad_cat_id": 66799,
        "meta_element_set_no": 999,
        "meta_rev_at_epoch": 416,
        "meta_bstar": -0.023716797,
        "meta_mean_motion_dot": -0.01989453,
        "meta_mean_motion_ddot": 0,
        "tle_line1": "1 66799U 25278J   25354.25003472 -.01989453  00000+0 -23717-1 0  9994",
        "tle_line2": "2 66799  42.9996 206.4392 0001344 256.6064 341.3358 15.63546792  4161"
      },
      "geometry": {
        "type": "Point",
        "coordinates": [
          -46.85973368128072,
          41.40851578673707
        ]
      }
    },
    {
      "type": "Feature",
      "properties": {
        "norad_id": 66800,
        "name": "STARLINK-35996",
        "group": "last-30-days",
        "lat": 40.45633989506404,
        "lon": -41.94304916742583,
        "alt_km": 376.5795732416027,
        "timestamp": "2025-12-20T14:38:00.689484+00:00",
        "meta_object_name": "STARLINK-35996",
        "meta_object_id": "2025-278K",
        "meta_epoch": "2025-12-20T06:00:02.999808",
        "meta_mean_motion": 15.63545255,
        "meta_eccentricity": 0.00012754,
        "meta_inclination": 42.9992,
        "meta_ra_of_asc_node": 206.4291,
        "meta_arg_of_pericenter": 259.5583,
        "meta_mean_anomaly": 342.2201,
        "meta_ephemeris_type": 0,
        "meta_classification_type": "U",
        "meta_norad_cat_id": 66800,
        "meta_element_set_no": 999,
        "meta_rev_at_epoch": 395,
        "meta_bstar": -0.023679767,
        "meta_mean_motion_dot": -0.01986567,
        "meta_mean_motion_ddot": 0,
        "tle_line1": "1 66800U 25278K   25354.25003472 -.01986567  00000+0 -23680-1 0  9999",
        "tle_line2": "2 66800  42.9992 206.4291 0001275 259.5583 342.2201 15.63545255  3955"
      },
      "geometry": {
        "type": "Point",
        "coordinates": [
          -41.94304916742583,
          40.45633989506404
        ]
      }
    },
    {
      "type": "Feature",
      "properties": {
        "norad_id": 66801,
        "name": "STARLINK-36080",
        "group": "last-30-days",
        "lat": 37.225528350174976,
        "lon": -30.359890620309468,
        "alt_km": 377.09612899994863,
        "timestamp": "2025-12-20T14:38:00.689495+00:00",
        "meta_object_name": "STARLINK-36080",
        "meta_object_id": "2025-278L",
        "meta_epoch": "2025-12-20T06:00:02.999808",
        "meta_mean_motion": 15.63547221,
        "meta_eccentricity": 0.00014573,
        "meta_inclination": 42.9992,
        "meta_ra_of_asc_node": 206.404,
        "meta_arg_of_pericenter": 259.4596,
        "meta_mean_anomaly": 351.9024,
        "meta_ephemeris_type": 0,
        "meta_classification_type": "U",
        "meta_norad_cat_id": 66801,
        "meta_element_set_no": 999,
        "meta_rev_at_epoch": 416,
        "meta_bstar": -0.023730836,
        "meta_mean_motion_dot": -0.01990601,
        "meta_mean_motion_ddot": 0,
        "tle_line1": "1 66801U 25278L   25354.25003472 -.01990601  00000+0 -23731-1 0  9991",
        "tle_line2": "2 66801  42.9992 206.4040 0001457 259.4596 351.9024 15.63547221  4162"
      },
      "geometry": {
        "type": "Point",
        "coordinates": [
          -30.359890620309468,
          37.225528350174976
        ]
      }
    },
    {
      "type": "Feature",
      "properties": {
        "norad_id": 66802,
        "name": "STARLINK-35604",
        "group": "last-30-days",
        "lat": 40.95878921593088,
        "lon": -44.3840868623351,
        "alt_km": 376.6544265482635,
        "timestamp": "2025-12-20T14:38:00.689507+00:00",
        "meta_object_name": "STARLINK-35604",
        "meta_object_id": "2025-278M",
        "meta_epoch": "2025-12-20T06:00:02.999808",
        "meta_mean_motion": 15.63549401,
        "meta_eccentricity": 0.00014479,
        "meta_inclination": 42.9996,
        "meta_ra_of_asc_node": 206.4334,
        "meta_arg_of_pericenter": 261.78,
        "meta_mean_anomaly": 338.0791,
        "meta_ephemeris_type": 0,
        "meta_classification_type": "U",
        "meta_norad_cat_id": 66802,
        "meta_element_set_no": 999,
        "meta_rev_at_epoch": 416,
        "meta_bstar": -0.023781135,
        "meta_mean_motion_dot": -0.01994449,
        "meta_mean_motion_ddot": 0,
        "tle_line1": "1 66802U 25278M   25354.25003472 -.01994449  00000+0 -23781-1 0  9991",
        "tle_line2": "2 66802  42.9996 206.4334 0001447 261.7800 338.0791 15.63549401  4165"
      },
      "geometry": {
        "type": "Point",
        "coordinates": [
          -44.3840868623351,
          40.95878921593088
        ]
      }
    },
    {
      "type": "Feature",
      "properties": {
        "norad_id": 66803,
        "name": "STARLINK-35565",
        "group": "last-30-days",
        "lat": 39.90466446185297,
        "lon": -39.54496641994653,
        "alt_km": 376.675866354306,
        "timestamp": "2025-12-20T14:38:00.689519+00:00",
        "meta_object_name": "STARLINK-35565",
        "meta_object_id": "2025-278N",
        "meta_epoch": "2025-12-20T06:00:02.999808",
        "meta_mean_motion": 15.63546972,
        "meta_eccentricity": 0.00013357,
        "meta_inclination": 42.9994,
        "meta_ra_of_asc_node": 206.4237,
        "meta_arg_of_pericenter": 258.6424,
        "meta_mean_anomaly": 345.051,
        "meta_ephemeris_type": 0,
        "meta_classification_type": "U",
        "meta_norad_cat_id": 66803,
        "meta_element_set_no": 999,
        "meta_rev_at_epoch": 425,
        "meta_bstar": -0.023707256,
        "meta_mean_motion_dot": -0.01988756,
        "meta_mean_motion_ddot": 0,
        "tle_line1": "1 66803U 25278N   25354.25003472 -.01988756  00000+0 -23707-1 0  9994",
        "tle_line2": "2 66803  42.9994 206.4237 0001335 258.6424 345.0510 15.63546972  4256"
      },
      "geometry": {
        "type": "Point",
        "coordinates": [
          -39.54496641994653,
          39.90466446185297
        ]
      }
    },
    {
      "type": "Feature",
      "properties": {
        "norad_id": 66804,
        "name": "STARLINK-36038",
        "group": "last-30-days",
        "lat": 39.30330939599882,
        "lon": -37.184597339355705,
        "alt_km": 376.7287891472579,
        "timestamp": "2025-12-20T14:38:00.689529+00:00",
        "meta_object_name": "STARLINK-36038",
        "meta_object_id": "2025-278P",
        "meta_epoch": "2025-12-20T06:00:02.999808",
        "meta_mean_motion": 15.63543805,
        "meta_eccentricity": 0.00013393,
        "meta_inclination": 42.999,
        "meta_ra_of_asc_node": 206.4196,
        "meta_arg_of_pericenter": 257.0163,
        "meta_mean_anomaly": 348.5952,
        "meta_ephemeris_type": 0,
        "meta_classification_type": "U",
        "meta_norad_cat_id": 66804,
        "meta_element_set_no": 999,
        "meta_rev_at_epoch": 416,
        "meta_bstar": -0.023640703,
        "meta_mean_motion_dot": -0.01983635,
        "meta_mean_motion_ddot": 0,
        "tle_line1": "1 66804U 25278P   25354.25003472 -.01983635  00000+0 -23641-1 0  9993",
        "tle_line2": "2 66804  42.9990 206.4196 0001339 257.0163 348.5952 15.63543805  4164"
      },
      "geometry": {
        "type": "Point",
        "coordinates": [
          -37.184597339355705,
          39.30330939599882
        ]
      }
    },
    {
      "type": "Feature",
      "properties": {
        "norad_id": 66805,
        "name": "STARLINK-36049",
        "group": "last-30-days",
        "lat": 37.96193662029493,
        "lon": -32.58994769831147,
        "alt_km": 377.0172721484996,
        "timestamp": "2025-12-20T14:38:00.689539+00:00",
        "meta_object_name": "STARLINK-36049",
        "meta_object_id": "2025-278Q",
        "meta_epoch": "2025-12-20T06:00:02.999808",
        "meta_mean_motion": 15.63546326,
        "meta_eccentricity": 0.00014566,
        "meta_inclination": 42.9995,
        "meta_ra_of_asc_node": 206.4092,
        "meta_arg_of_pericenter": 260.2532,
        "meta_mean_anomaly": 349.1938,
        "meta_ephemeris_type": 0,
        "meta_classification_type": "U",
        "meta_norad_cat_id": 66805,
        "meta_element_set_no": 999,
        "meta_rev_at_epoch": 416,
        "meta_bstar": -0.023737944,
        "meta_mean_motion_dot": -0.01991061,
        "meta_mean_motion_ddot": 0,
        "tle_line1": "1 66805U 25278Q   25354.25003472 -.01991061  00000+0 -23738-1 0  9993",
        "tle_line2": "2 66805  42.9995 206.4092 0001456 260.2532 349.1938 15.63546326  4163"
      },
      "geometry": {
        "type": "Point",
        "coordinates": [
          -32.58994769831147,
          37.96193662029493
        ]
      }
    }
  ]
}